[{"OBJECT_NAME":"ZACUBE-1 (TSHEPISOSAT)","OBJECT_ID":"2013-066B","EPOCH":"2026-03-09T22:19:27.469056","MEAN_MOTION":15.00329659,"ECCENTRICITY":0.00425262,"INCLINATION":97.8171,"RA_OF_ASC_NODE":30.7553,"ARG_OF_PERICENTER":219.1599,"MEAN_ANOMALY":140.6545,"EPHEMERIS_TYPE":0,"CLASSIFICATION_TYPE":"U","NORAD_CAT_ID":39417,"ELEMENT_SET_NO":999,"REV_AT_EPOCH":66584,"BSTAR":0.00042975473,"MEAN_MOTION_DOT":5.431e-5,"MEAN_MOTION_DDOT":0},{"OBJECT_NAME":"STARLINK-34834","OBJECT_ID":"2025-184Y","EPOCH":"2026-03-09T17:52:50.057184","MEAN_MOTION":15.05658213,"ECCENTRICITY":0.00013925,"INCLINATION":97.602,"RA_OF_ASC_NODE":122.6313,"ARG_OF_PERICENTER":87.4963,"MEAN_ANOMALY":272.6423,"EPHEMERIS_TYPE":0,"CLASSIFICATION_TYPE":"U","NORAD_CAT_ID":65295,"ELEMENT_SET_NO":999,"REV_AT_EPOCH":3130,"BSTAR":0.00046757904,"MEAN_MOTION_DOT":6.694e-5,"MEAN_MOTION_DDOT":0}]
